{
  "type": "FeatureCollection",
  "features": [
    {
      "type": "Feature",
      "properties": {
        "norad_id": 51444,
        "name": "CSG-2",
        "group": "resource",
        "lat": 42.2928715530762,
        "lon": 153.40074352773783,
        "alt_km": 618.3606758667402,
        "timestamp": "2025-12-05T04:52:14.979605+00:00",
        "meta_object_name": "CSG-2",
        "meta_object_id": "2022-008A",
        "meta_epoch": "2025-12-04T18:57:24.810336",
        "meta_mean_motion": 14.82151731,
        "meta_eccentricity": 0.0001507,
        "meta_inclination": 97.8807,
        "meta_ra_of_asc_node": 160.2328,
        "meta_arg_of_pericenter": 89.2709,
        "meta_mean_anomaly": 270.8677,
        "meta_ephemeris_type": 0,
        "meta_classification_type": "U",
        "meta_norad_cat_id": 51444,
        "meta_element_set_no": 999,
        "meta_rev_at_epoch": 20779,
        "meta_bstar": 0.00014114,
        "meta_mean_motion_dot": 1.072e-05,
        "meta_mean_motion_ddot": 0,
        "tle_line1": "1 51444U 22008A   25338.78987049  .00001072  00000+0  14114-3 0  9996",
        "tle_line2": "2 51444  97.8807 160.2328 0001507  89.2709 270.8677 14.82151731207794"
      },
      "geometry": {
        "type": "Point",
        "coordinates": [
          153.40074352773783,
          42.2928715530762
        ]
      }
    },
    {
      "type": "Feature",
      "properties": {
        "norad_id": 52912,
        "name": "GAOFEN-12 03",
        "group": "resource",
        "lat": 28.453794645868566,
        "lon": -137.5614937896737,
        "alt_km": 628.2459386380478,
        "timestamp": "2025-12-05T04:52:14.979614+00:00",
        "meta_object_name": "GAOFEN-12 03",
        "meta_object_id": "2022-069A",
        "meta_epoch": "2025-12-04T17:22:47.430912",
        "meta_mean_motion": 14.79579132,
        "meta_eccentricity": 0.0002309,
        "meta_inclination": 97.8489,
        "meta_ra_of_asc_node": 226.258,
        "meta_arg_of_pericenter": 75.3825,
        "meta_mean_anomaly": 284.7643,
        "meta_ephemeris_type": 0,
        "meta_classification_type": "U",
        "meta_norad_cat_id": 52912,
        "meta_element_set_no": 999,
        "meta_rev_at_epoch": 18585,
        "meta_bstar": 0.00034523,
        "meta_mean_motion_dot": 2.535e-05,
        "meta_mean_motion_ddot": 0,
        "tle_line1": "1 52912U 22069A   25338.72416008  .00002535  00000+0  34523-3 0  9991",
        "tle_line2": "2 52912  97.8489 226.2580 0002309  75.3825 284.7643 14.79579132185854"
      },
      "geometry": {
        "type": "Point",
        "coordinates": [
          -137.5614937896737,
          28.453794645868566
        ]
      }
    },
    {
      "type": "Feature",
      "properties": {
        "norad_id": 54754,
        "name": "SWOT",
        "group": "resource",
        "lat": -6.7975641801253275,
        "lon": -64.33692592831974,
        "alt_km": 896.9770457406848,
        "timestamp": "2025-12-05T04:52:14.979623+00:00",
        "meta_object_name": "SWOT",
        "meta_object_id": "2022-173A",
        "meta_epoch": "2025-12-04T15:11:05.254080",
        "meta_mean_motion": 14.00172854,
        "meta_eccentricity": 3.31e-05,
        "meta_inclination": 77.6099,
        "meta_ra_of_asc_node": 297.9341,
        "meta_arg_of_pericenter": 136.9628,
        "meta_mean_anomaly": 223.1549,
        "meta_ephemeris_type": 0,
        "meta_classification_type": "U",
        "meta_norad_cat_id": 54754,
        "meta_element_set_no": 999,
        "meta_rev_at_epoch": 15192,
        "meta_bstar": 0.00010701,
        "meta_mean_motion_dot": 1.55e-06,
        "meta_mean_motion_ddot": 0,
        "tle_line1": "1 54754U 22173A   25338.63269970  .00000155  00000+0  10701-3 0  9995",
        "tle_line2": "2 54754  77.6099 297.9341 0000331 136.9628 223.1549 14.00172854151928"
      },
      "geometry": {
        "type": "Point",
        "coordinates": [
          -64.33692592831974,
          -6.7975641801253275
        ]
      }
    },
    {
      "type": "Feature",
      "properties": {
        "norad_id": 57654,
        "name": "GAOFEN-12 04",
        "group": "resource",
        "lat": -16.019318232429086,
        "lon": 72.78620351410464,
        "alt_km": 635.8012564192841,
        "timestamp": "2025-12-05T04:52:14.979633+00:00",
        "meta_object_name": "GAOFEN-12 04",
        "meta_object_id": "2023-123A",
        "meta_epoch": "2025-12-04T18:14:59.144928",
        "meta_mean_motion": 14.79662915,
        "meta_eccentricity": 0.0001453,
        "meta_inclination": 97.912,
        "meta_ra_of_asc_node": 254.6388,
        "meta_arg_of_pericenter": 73.1024,
        "meta_mean_anomaly": 287.0347,
        "meta_ephemeris_type": 0,
        "meta_classification_type": "U",
        "meta_norad_cat_id": 57654,
        "meta_element_set_no": 999,
        "meta_rev_at_epoch": 12387,
        "meta_bstar": 0.00043563,
        "meta_mean_motion_dot": 3.218e-05,
        "meta_mean_motion_ddot": 0,
        "tle_line1": "1 57654U 23123A   25338.76040677  .00003218  00000+0  43563-3 0  9993",
        "tle_line2": "2 57654  97.9120 254.6388 0001453  73.1024 287.0347 14.79662915123875"
      },
      "geometry": {
        "type": "Point",
        "coordinates": [
          72.78620351410464,
          -16.019318232429086
        ]
      }
    },
    {
      "type": "Feature",
      "properties": {
        "norad_id": 59065,
        "name": "PARS 1",
        "group": "resource",
        "lat": 15.458071849499746,
        "lon": -52.09912489522411,
        "alt_km": 443.11678495275737,
        "timestamp": "2025-12-05T04:52:14.979642+00:00",
        "meta_object_name": "PARS 1",
        "meta_object_id": "2024-039Q",
        "meta_epoch": "2025-12-04T17:53:32.089056",
        "meta_mean_motion": 15.40706408,
        "meta_eccentricity": 0.0012702,
        "meta_inclination": 97.4622,
        "meta_ra_of_asc_node": 309.5112,
        "meta_arg_of_pericenter": 95.827,
        "meta_mean_anomaly": 264.4425,
        "meta_ephemeris_type": 0,
        "meta_classification_type": "U",
        "meta_norad_cat_id": 59065,
        "meta_element_set_no": 999,
        "meta_rev_at_epoch": 9865,
        "meta_bstar": 0.0005239,
        "meta_mean_motion_dot": 0.00021399,
        "meta_mean_motion_ddot": 0,
        "tle_line1": "1 59065U 24039Q   25338.74551029  .00021399  00000+0  52390-3 0  9992",
        "tle_line2": "2 59065  97.4622 309.5112 0012702  95.8270 264.4425 15.40706408 98651"
      },
      "geometry": {
        "type": "Point",
        "coordinates": [
          -52.09912489522411,
          15.458071849499746
        ]
      }
    },
    {
      "type": "Feature",
      "properties": {
        "norad_id": 59371,
        "name": "RESURS-P 4",
        "group": "resource",
        "lat": 36.231590211111936,
        "lon": -79.66720543404902,
        "alt_km": 466.06904756201584,
        "timestamp": "2025-12-05T04:52:14.979651+00:00",
        "meta_object_name": "RESURS-P 4",
        "meta_object_id": "2024-061A",
        "meta_epoch": "2025-12-04T17:44:18.761856",
        "meta_mean_motion": 15.31988553,
        "meta_eccentricity": 0.0002066,
        "meta_inclination": 97.2535,
        "meta_ra_of_asc_node": 285.2336,
        "meta_arg_of_pericenter": 55.0308,
        "meta_mean_anomaly": 305.1128,
        "meta_ephemeris_type": 0,
        "meta_classification_type": "U",
        "meta_norad_cat_id": 59371,
        "meta_element_set_no": 999,
        "meta_rev_at_epoch": 9398,
        "meta_bstar": 0.00026402,
        "meta_mean_motion_dot": 8.08e-05,
        "meta_mean_motion_ddot": 0,
        "tle_line1": "1 59371U 24061A   25338.73910604  .00008080  00000+0  26402-3 0  9991",
        "tle_line2": "2 59371  97.2535 285.2336 0002066  55.0308 305.1128 15.31988553 93989"
      },
      "geometry": {
        "type": "Point",
        "coordinates": [
          -79.66720543404902,
          36.231590211111936
        ]
      }
    },
    {
      "type": "Feature",
      "properties": {
        "norad_id": 59625,
        "name": "LEGION 1",
        "group": "resource",
        "lat": -35.153346120421666,
        "lon": 59.24655539171257,
        "alt_km": 520.2565294124279,
        "timestamp": "2025-12-05T04:52:14.979660+00:00",
        "meta_object_name": "LEGION 1",
        "meta_object_id": "2024-081A",
        "meta_epoch": "2025-12-04T16:21:25.378272",
        "meta_mean_motion": 15.16357945,
        "meta_eccentricity": 0.0004601,
        "meta_inclination": 97.5231,
        "meta_ra_of_asc_node": 53.3897,
        "meta_arg_of_pericenter": 350.433,
        "meta_mean_anomaly": 9.6814,
        "meta_ephemeris_type": 0,
        "meta_classification_type": "U",
        "meta_norad_cat_id": 59625,
        "meta_element_set_no": 999,
        "meta_rev_at_epoch": 8805,
        "meta_bstar": 0.00059166,
        "meta_mean_motion_dot": 0.00011424,
        "meta_mean_motion_ddot": 0,
        "tle_line1": "1 59625U 24081A   25338.68154373  .00011424  00000+0  59166-3 0  9991",
        "tle_line2": "2 59625  97.5231  53.3897 0004601 350.4330   9.6814 15.16357945 88055"
      },
      "geometry": {
        "type": "Point",
        "coordinates": [
          59.24655539171257,
          -35.153346120421666
        ]
      }
    }
  ]
}